{"updated_at":"2026-06-13T08:20:15.482518Z","count":200,"data":[{"NORAD_CAT_ID":"69375","OBJECT_NAME":"STARLINK-37454","OBJECT_ID":"2026-123Y","EPOCH":"2026-06-12T20:00:01.999008","TLE_LINE1":"1 69375U 26123Y   26163.83335647 -.02113786  12223-2 -58775-2 0  9997","TLE_LINE2":"2 69375  53.1560 263.1887 0000823  55.4081 288.6685 15.93243602  2597"},{"NORAD_CAT_ID":"69376","OBJECT_NAME":"STARLINK-37485","OBJECT_ID":"2026-123Z","EPOCH":"2026-06-12T20:00:01.999008","TLE_LINE1":"1 69376U 26123Z   26163.83335647 -.02126297  12364-2 -59024-2 0  9993","TLE_LINE2":"2 69376  53.1560 263.1798 0000849  48.4551 299.8282 15.93276817  2592"},{"NORAD_CAT_ID":"69377","OBJECT_NAME":"STARLINK-37439","OBJECT_ID":"2026-123AA","EPOCH":"2026-06-12T20:00:01.999008","TLE_LINE1":"1 69377U 26123AA  26163.83335647 -.02113688  12450-2 -53551-2 0  9999","TLE_LINE2":"2 69377  53.1558 263.1349 0000937  54.6570 315.2115 15.94993217  2454"},{"NORAD_CAT_ID":"69378","OBJECT_NAME":"STARLINK-37376","OBJECT_ID":"2026-123AB","EPOCH":"2026-06-12T20:00:01.999008","TLE_LINE1":"1 69378U 26123AB  26163.83335647 -.02096479  12138-2 -55833-2 0  9996","TLE_LINE2":"2 69378  53.1558 263.1451 0000878  52.6806 312.1799 15.94057229  2596"},{"NORAD_CAT_ID":"69379","OBJECT_NAME":"STARLINK-37383","OBJECT_ID":"2026-123AC","EPOCH":"2026-06-12T20:00:01.999008","TLE_LINE1":"1 69379U 26123AC  26163.83335647 -.02118158  12487-2 -53939-2 0  9998","TLE_LINE2":"2 69379  53.1553 263.0897 0001018  30.0801   1.1557 15.94898196  2590"},{"NORAD_CAT_ID":"69380","OBJECT_NAME":"STARLINK-37411","OBJECT_ID":"2026-123AD","EPOCH":"2026-06-12T20:00:01.999008","TLE_LINE1":"1 69380U 26123AD  26163.83335647 -.02114037  12338-2 -56133-2 0  9996","TLE_LINE2":"2 69380  53.1558 263.1302 0000896  49.1063 322.6537 15.94115201  2591"},{"NORAD_CAT_ID":"69381","OBJECT_NAME":"STARLINK-37427","OBJECT_ID":"2026-123AE","EPOCH":"2026-06-12T20:00:01.999008","TLE_LINE1":"1 69381U 26123AE  26163.83335647 -.02061120  11857-2 -52545-2 0  9999","TLE_LINE2":"2 69381  53.1557 263.1036 0000930  49.7879 334.8361 15.94871369  2500"},{"NORAD_CAT_ID":"69382","OBJECT_NAME":"QIANFAN-165","OBJECT_ID":"2026-124A","EPOCH":"2026-06-12T19:30:37.678176","TLE_LINE1":"1 69382U 26124A   26163.81293609  .00000102  00000-0  39051-4 0  9994","TLE_LINE2":"2 69382  88.9987   2.5366 0002269 172.5730 187.5496 14.23015036  1191"},{"NORAD_CAT_ID":"69383","OBJECT_NAME":"QIANFAN-166","OBJECT_ID":"2026-124B","EPOCH":"2026-06-12T19:28:48.476352","TLE_LINE1":"1 69383U 26124B   26163.81167218  .00000104  00000-0  39148-4 0  9990","TLE_LINE2":"2 69383  88.9991   2.5359 0001709 151.1685 208.9602 14.23972037  1199"},{"NORAD_CAT_ID":"69384","OBJECT_NAME":"QIANFAN-167","OBJECT_ID":"2026-124C","EPOCH":"2026-06-12T17:46:01.032672","TLE_LINE1":"1 69384U 26124C   26163.74028973 -.02019974  00000-0 -10030+1 0  9991","TLE_LINE2":"2 69384  88.9978   2.5445 0006308 183.2005 176.9147 14.21267173  1186"},{"NORAD_CAT_ID":"69385","OBJECT_NAME":"QIANFAN-168","OBJECT_ID":"2026-124D","EPOCH":"2026-06-12T12:43:05.475072","TLE_LINE1":"1 69385U 26124D   26163.52992448  .00000108  00000-0  39351-4 0  9991","TLE_LINE2":"2 69385  88.9964   2.5680 0003159 171.0112 189.1138 14.25574266  1159"},{"NORAD_CAT_ID":"69386","OBJECT_NAME":"QIANFAN-169","OBJECT_ID":"2026-124E","EPOCH":"2026-06-12T19:27:12.776256","TLE_LINE1":"1 69386U 26124E   26163.81056454  .00000141  00000-0  53591-4 0  9991","TLE_LINE2":"2 69386  88.9985   2.5362 0002828 172.2019 187.9218 14.25616999  1190"},{"NORAD_CAT_ID":"69387","OBJECT_NAME":"QIANFAN-170","OBJECT_ID":"2026-124F","EPOCH":"2026-06-12T19:26:48.603264","TLE_LINE1":"1 69387U 26124F   26163.81028476  .00000444  00000-0  18127-3 0  9996","TLE_LINE2":"2 69387  88.9985   2.5363 0002001 166.8108 193.3138 14.25629953  1199"},{"NORAD_CAT_ID":"69388","OBJECT_NAME":"QIANFAN-171","OBJECT_ID":"2026-124G","EPOCH":"2026-06-12T19:26:19.331808","TLE_LINE1":"1 69388U 26124G   26163.80994597  .00000107  00000-0  39069-4 0  9997","TLE_LINE2":"2 69388  88.9987   2.5364 0001912 194.3454 165.7685 14.25624027  1190"},{"NORAD_CAT_ID":"69389","OBJECT_NAME":"QIANFAN-172","OBJECT_ID":"2026-124H","EPOCH":"2026-06-12T19:26:29.368032","TLE_LINE1":"1 69389U 26124H   26163.81006213  .00000107  00000-0  39094-4 0  9996","TLE_LINE2":"2 69389  88.9984   2.5363 0002199 182.3284 177.7899 14.25677194  1196"},{"NORAD_CAT_ID":"69390","OBJECT_NAME":"QIANFAN-173","OBJECT_ID":"2026-124J","EPOCH":"2026-06-12T19:26:00.161376","TLE_LINE1":"1 69390U 26124J   26163.80972409  .00000107  00000-0  39105-4 0  9999","TLE_LINE2":"2 69390  88.9987   2.5363 0002348 174.2799 185.8421 14.25636191  1191"},{"NORAD_CAT_ID":"69391","OBJECT_NAME":"QIANFAN-174","OBJECT_ID":"2026-124K","EPOCH":"2026-06-12T19:25:37.650720","TLE_LINE1":"1 69391U 26124K   26163.80946355  .00000107  00000-0  39097-4 0  9991","TLE_LINE2":"2 69391  88.9986   2.5361 0001994 162.8992 197.2269 14.25793745  1199"},{"NORAD_CAT_ID":"69392","OBJECT_NAME":"QIANFAN-175","OBJECT_ID":"2026-124L","EPOCH":"2026-06-11T23:12:23.272128","TLE_LINE1":"1 69392U 26124L   26162.96693602 -.02061810  00000-0 -98041+0 0  9993","TLE_LINE2":"2 69392  88.9979   2.6328 0006344 104.9794 255.2100 14.23645484  1077"},{"NORAD_CAT_ID":"69393","OBJECT_NAME":"QIANFAN-176","OBJECT_ID":"2026-124M","EPOCH":"2026-06-12T19:25:10.193664","TLE_LINE1":"1 69393U 26124M   26163.80914576  .00000107  00000-0  39078-4 0  9992","TLE_LINE2":"2 69393  88.9992   2.5367 0001687 178.6374 181.4824 14.25632327  1192"},{"NORAD_CAT_ID":"69394","OBJECT_NAME":"QIANFAN-177","OBJECT_ID":"2026-124N","EPOCH":"2026-06-12T19:24:51.425856","TLE_LINE1":"1 69394U 26124N   26163.80892854  .00000184  00000-0  70296-4 0  9999","TLE_LINE2":"2 69394  88.9986   2.5363 0002256 160.0406 200.0876 14.26481310  1196"},{"NORAD_CAT_ID":"69329","OBJECT_NAME":"STARLINK-37733","OBJECT_ID":"2026-122A","EPOCH":"2026-06-12T20:00:01.999008","TLE_LINE1":"1 69329U 26122A   26163.83335647 -.00087370  00000-0 -45927-3 0  9996","TLE_LINE2":"2 69329  97.2836 193.0215 0000715  86.1891 128.1081 15.80850240  2650"},{"NORAD_CAT_ID":"69330","OBJECT_NAME":"STARLINK-37772","OBJECT_ID":"2026-122B","EPOCH":"2026-06-12T20:00:01.999008","TLE_LINE1":"1 69330U 26122B   26163.83335647 -.00010266  00000-0 -52972-4 0  9997","TLE_LINE2":"2 69330  97.2830 193.0346 0001220  70.2727 173.8991 15.80793109  2607"},{"NORAD_CAT_ID":"69331","OBJECT_NAME":"STARLINK-37768","OBJECT_ID":"2026-122C","EPOCH":"2026-06-12T20:00:01.999008","TLE_LINE1":"1 69331U 26122C   26163.83335647 -.00637619  00000-0 -35130-2 0  9990","TLE_LINE2":"2 69331  97.2832 193.0392 0001532  90.0966 163.2916 15.81209744  2600"},{"NORAD_CAT_ID":"69332","OBJECT_NAME":"STARLINK-37833","OBJECT_ID":"2026-122D","EPOCH":"2026-06-12T20:00:01.999008","TLE_LINE1":"1 69332U 26122D   26163.83335647 -.00063733  00000-0 -33377-3 0  9993","TLE_LINE2":"2 69332  97.2831 193.0406 0001312  82.7334 173.6315 15.80858345  2603"},{"NORAD_CAT_ID":"69333","OBJECT_NAME":"STARLINK-37818","OBJECT_ID":"2026-122E","EPOCH":"2026-06-12T20:00:01.999008","TLE_LINE1":"1 69333U 26122E   26163.83335647  .00050906  00000-0  26543-3 0  9997","TLE_LINE2":"2 69333  97.2833 193.0359 0001355  79.6876 165.6779 15.80776160  2650"},{"NORAD_CAT_ID":"69334","OBJECT_NAME":"STARLINK-37868","OBJECT_ID":"2026-122F","EPOCH":"2026-06-12T20:00:01.999008","TLE_LINE1":"1 69334U 26122F   26163.83335647 -.01189783  00000-0 -56308-2 0  9998","TLE_LINE2":"2 69334  97.2825 193.0475 0001275  80.9295 192.4378 15.85337763  2652"},{"NORAD_CAT_ID":"69335","OBJECT_NAME":"STARLINK-37877","OBJECT_ID":"2026-122G","EPOCH":"2026-06-12T20:00:01.999008","TLE_LINE1":"1 69335U 26122G   26163.83335647 -.01191524  00000-0 -56422-2 0  9992","TLE_LINE2":"2 69335  97.2825 193.0476 0001383  79.9162 194.2367 15.85328584  2654"},{"NORAD_CAT_ID":"69336","OBJECT_NAME":"STARLINK-37791","OBJECT_ID":"2026-122H","EPOCH":"2026-06-12T20:00:01.999008","TLE_LINE1":"1 69336U 26122H   26163.83335647 -.00688020  00000-0 -31388-2 0  9998","TLE_LINE2":"2 69336  97.2827 193.0498 0001397  88.4647 190.6399 15.85332532  2652"},{"NORAD_CAT_ID":"69337","OBJECT_NAME":"STARLINK-37765","OBJECT_ID":"2026-122J","EPOCH":"2026-06-12T20:00:01.999008","TLE_LINE1":"1 69337U 26122J   26163.83335647 -.02325047  00000-0 -11194-1 0  9990","TLE_LINE2":"2 69337  97.2829 193.0550 0001684 127.4991 162.4755 15.86061328  2701"},{"NORAD_CAT_ID":"69338","OBJECT_NAME":"STARLINK-37788","OBJECT_ID":"2026-122K","EPOCH":"2026-06-12T20:00:01.999008","TLE_LINE1":"1 69338U 26122K   26163.83335647 -.00923224  00000-0 -44854-2 0  9990","TLE_LINE2":"2 69338  97.2833 193.0568 0001242  81.7318 213.1238 15.84580181  2656"},{"NORAD_CAT_ID":"69339","OBJECT_NAME":"STARLINK-37743","OBJECT_ID":"2026-122L","EPOCH":"2026-06-12T20:00:01.999008","TLE_LINE1":"1 69339U 26122L   26163.83335647 -.01373158  00000-0 -78108-2 0  9996","TLE_LINE2":"2 69339  97.2836 193.0546 0001596  84.7785 204.5120 15.81864006  2651"},{"NORAD_CAT_ID":"69340","OBJECT_NAME":"STARLINK-37780","OBJECT_ID":"2026-122M","EPOCH":"2026-06-12T20:00:01.999008","TLE_LINE1":"1 69340U 26122M   26163.83335647 -.02362948  00000-0 -12937-1 0  9991","TLE_LINE2":"2 69340  97.2836 193.0576 0001581  72.7276 221.3160 15.82856553  2708"},{"NORAD_CAT_ID":"69341","OBJECT_NAME":"STARLINK-37781","OBJECT_ID":"2026-122N","EPOCH":"2026-06-12T20:00:01.999008","TLE_LINE1":"1 69341U 26122N   26163.83335647 -.00015151  00000-0 -78503-4 0  9995","TLE_LINE2":"2 69341  97.2834 193.0523 0000925  85.1126 199.2084 15.80814190  2653"},{"NORAD_CAT_ID":"69342","OBJECT_NAME":"STARLINK-37782","OBJECT_ID":"2026-122P","EPOCH":"2026-06-12T20:00:01.999008","TLE_LINE1":"1 69342U 26122P   26163.83335647 -.01167073  00000-0 -51869-2 0  9992","TLE_LINE2":"2 69342  97.2834 193.0655 0001273  81.5515 233.4286 15.87005202  2657"}]}